ATLAS CENTAUR R/B       
1 06155U 72065B   25327.06122412  .00001299  00000+0  18144-3 0  9995
2 06155  35.0006 210.4657 0033999 194.6256 165.3463 14.77335263825480
SL-8 R/B                
1 08459U 75112B   25327.14438410  .00000304  00000+0  10869-3 0  9999
2 08459  74.0605 214.8990 0016132 328.8436  31.1760 14.38127403616554
SL-3 R/B                
1 10114U 77057B   25327.42562014  .00012437  00000+0  29052-3 0  9993
2 10114  97.5684 130.0120 0006808 314.0796  45.9889 15.42315073651935
SEASAT 1                
1 10967U 78064A   25327.31251772  .00000447  00000+0  16369-3 0  9997
2 10967 108.0085 262.2805 0002114 252.2415 107.8500 14.46029137491137
SL-14 R/B               
1 11267U 79011B   25327.13451590  .00000646  00000+0  61437-4 0  9992
2 11267  82.5252 197.6358 0017446  56.3780 303.9101 14.91736265512899
SL-8 R/B                
1 11574U 79089B   25327.34524633  .00000306  00000+0  10059-3 0  9996
2 11574  74.0682 287.8740 0014682 130.2979 229.9463 14.42263753420777
SL-14 R/B               
1 11672U 80005B   25327.27895226  .00000756  00000+0  74194-4 0  9996
2 11672  82.5162  48.1528 0016478 153.6257 206.5804 14.90756234460631
SL-8 R/B                
1 12139U 81003B   25327.27667775  .00022971  00000+0  62143-3 0  9993
2 12139  82.9314  28.1053 0281909 187.5759 172.1174 15.06101982298639
SL-3 R/B                
1 12465U 81046B   25327.45303963  .00011506  00000+0  29465-3 0  9990
2 12465  81.2343  56.9974 0020228  31.1734 329.0702 15.39043866422077
SL-3 R/B                
1 12904U 81103B   25327.43838722  .00007482  00000+0  34676-3 0  9994
2 12904  81.1590 337.9551 0011504 288.7577  71.2405 15.19895492957081
SL-3 R/B                
1 13068U 82013B   25327.43304385  .00005202  00000+0  23301-3 0  9991
2 13068  81.1743 285.2038 0022886 173.5688 186.5842 15.20833640388191
SL-3 R/B                
1 13154U 82039B   25327.41514382  .00002749  00000+0  16890-3 0  9991
2 13154  81.1755 338.3226 0031265 316.7854  43.0918 15.09362006365608
