CCSDS_OMM_VERS = 2.0
CREATION_DATE  = 
ORIGINATOR     = 

OBJECT_NAME    = ATLAS CENTAUR R/B
OBJECT_ID      = 1972-065B
CENTER_NAME    = EARTH
REF_FRAME      = TEME
TIME_SYSTEM    = UTC
MEAN_ELEMENT_THEORY = SGP/SGP4

EPOCH          = 2025-11-23T01:28:09.763968
MEAN_MOTION    = 14.77335263
ECCENTRICITY   = .0033999
INCLINATION    = 35.0006
RA_OF_ASC_NODE = 210.4657
ARG_OF_PERICENTER = 194.6256
MEAN_ANOMALY   = 165.3463

EPHEMERIS_TYPE = 0
CLASSIFICATION_TYPE = U
NORAD_CAT_ID   = 6155
ELEMENT_SET_NO = 999
REV_AT_EPOCH   = 82548
BSTAR          = .18144E-3
MEAN_MOTION_DOT = .1299E-4
MEAN_MOTION_DDOT = 0

CCSDS_OMM_VERS = 2.0
CREATION_DATE  = 
ORIGINATOR     = 

OBJECT_NAME    = SL-8 R/B
OBJECT_ID      = 1975-112B
CENTER_NAME    = EARTH
REF_FRAME      = TEME
TIME_SYSTEM    = UTC
MEAN_ELEMENT_THEORY = SGP/SGP4

EPOCH          = 2025-11-23T03:27:54.786240
MEAN_MOTION    = 14.38127403
ECCENTRICITY   = .0016132
INCLINATION    = 74.0605
RA_OF_ASC_NODE = 214.8990
ARG_OF_PERICENTER = 328.8436
MEAN_ANOMALY   = 31.1760

EPHEMERIS_TYPE = 0
CLASSIFICATION_TYPE = U
NORAD_CAT_ID   = 8459
ELEMENT_SET_NO = 999
REV_AT_EPOCH   = 61655
BSTAR          = .10869E-3
MEAN_MOTION_DOT = .304E-5
MEAN_MOTION_DDOT = 0

CCSDS_OMM_VERS = 2.0
CREATION_DATE  = 
ORIGINATOR     = 

OBJECT_NAME    = SL-3 R/B
OBJECT_ID      = 1977-057B
CENTER_NAME    = EARTH
REF_FRAME      = TEME
TIME_SYSTEM    = UTC
MEAN_ELEMENT_THEORY = SGP/SGP4

EPOCH          = 2025-11-23T10:12:53.580096
MEAN_MOTION    = 15.42315073
ECCENTRICITY   = .0006808
INCLINATION    = 97.5684
RA_OF_ASC_NODE = 130.0120
ARG_OF_PERICENTER = 314.0796
MEAN_ANOMALY   = 45.9889

EPHEMERIS_TYPE = 0
CLASSIFICATION_TYPE = U
NORAD_CAT_ID   = 10114
ELEMENT_SET_NO = 999
REV_AT_EPOCH   = 65193
BSTAR          = .29052E-3
MEAN_MOTION_DOT = .12437E-3
MEAN_MOTION_DDOT = 0

CCSDS_OMM_VERS = 2.0
CREATION_DATE  = 
ORIGINATOR     = 

OBJECT_NAME    = SEASAT 1
OBJECT_ID      = 1978-064A
CENTER_NAME    = EARTH
REF_FRAME      = TEME
TIME_SYSTEM    = UTC
MEAN_ELEMENT_THEORY = SGP/SGP4

EPOCH          = 2025-11-23T07:30:01.531008
MEAN_MOTION    = 14.46029137
ECCENTRICITY   = .0002114
INCLINATION    = 108.0085
RA_OF_ASC_NODE = 262.2805
ARG_OF_PERICENTER = 252.2415
MEAN_ANOMALY   = 107.8500

EPHEMERIS_TYPE = 0
CLASSIFICATION_TYPE = U
NORAD_CAT_ID   = 10967
ELEMENT_SET_NO = 999
REV_AT_EPOCH   = 49113
BSTAR          = .16369E-3
MEAN_MOTION_DOT = .447E-5
MEAN_MOTION_DDOT = 0

CCSDS_OMM_VERS = 2.0
CREATION_DATE  = 
ORIGINATOR     = 

OBJECT_NAME    = SL-14 R/B
OBJECT_ID      = 1979-011B
CENTER_NAME    = EARTH
REF_FRAME      = TEME
TIME_SYSTEM    = UTC
MEAN_ELEMENT_THEORY = SGP/SGP4

EPOCH          = 2025-11-23T03:13:42.173760
MEAN_MOTION    = 14.91736265
ECCENTRICITY   = .0017446
INCLINATION    = 82.5252
RA_OF_ASC_NODE = 197.6358
ARG_OF_PERICENTER = 56.3780
MEAN_ANOMALY   = 303.9101

EPHEMERIS_TYPE = 0
CLASSIFICATION_TYPE = U
NORAD_CAT_ID   = 11267
ELEMENT_SET_NO = 999
REV_AT_EPOCH   = 51289
BSTAR          = .61437E-4
MEAN_MOTION_DOT = .646E-5
MEAN_MOTION_DDOT = 0

CCSDS_OMM_VERS = 2.0
CREATION_DATE  = 
ORIGINATOR     = 

OBJECT_NAME    = SL-8 R/B
OBJECT_ID      = 1979-089B
CENTER_NAME    = EARTH
REF_FRAME      = TEME
TIME_SYSTEM    = UTC
MEAN_ELEMENT_THEORY = SGP/SGP4

EPOCH          = 2025-11-23T08:17:09.282912
MEAN_MOTION    = 14.42263753
ECCENTRICITY   = .0014682
INCLINATION    = 74.0682
RA_OF_ASC_NODE = 287.8740
ARG_OF_PERICENTER = 130.2979
MEAN_ANOMALY   = 229.9463

EPHEMERIS_TYPE = 0
CLASSIFICATION_TYPE = U
NORAD_CAT_ID   = 11574
ELEMENT_SET_NO = 999
REV_AT_EPOCH   = 42077
BSTAR          = .10059E-3
MEAN_MOTION_DOT = .306E-5
MEAN_MOTION_DDOT = 0

CCSDS_OMM_VERS = 2.0
CREATION_DATE  = 
ORIGINATOR     = 

OBJECT_NAME    = SL-14 R/B
OBJECT_ID      = 1980-005B
CENTER_NAME    = EARTH
REF_FRAME      = TEME
TIME_SYSTEM    = UTC
MEAN_ELEMENT_THEORY = SGP/SGP4

EPOCH          = 2025-11-23T06:41:41.475264
MEAN_MOTION    = 14.90756234
ECCENTRICITY   = .0016478
INCLINATION    = 82.5162
RA_OF_ASC_NODE = 48.1528
ARG_OF_PERICENTER = 153.6257
MEAN_ANOMALY   = 206.5804

EPHEMERIS_TYPE = 0
CLASSIFICATION_TYPE = U
NORAD_CAT_ID   = 11672
ELEMENT_SET_NO = 999
REV_AT_EPOCH   = 46063
BSTAR          = .74194E-4
MEAN_MOTION_DOT = .756E-5
MEAN_MOTION_DDOT = 0

CCSDS_OMM_VERS = 2.0
CREATION_DATE  = 
ORIGINATOR     = 

OBJECT_NAME    = SL-8 R/B
OBJECT_ID      = 1981-003B
CENTER_NAME    = EARTH
REF_FRAME      = TEME
TIME_SYSTEM    = UTC
MEAN_ELEMENT_THEORY = SGP/SGP4

EPOCH          = 2025-11-23T06:38:24.957600
MEAN_MOTION    = 15.06101982
ECCENTRICITY   = .0281909
INCLINATION    = 82.9314
RA_OF_ASC_NODE = 28.1053
ARG_OF_PERICENTER = 187.5759
MEAN_ANOMALY   = 172.1174

EPHEMERIS_TYPE = 0
CLASSIFICATION_TYPE = U
NORAD_CAT_ID   = 12139
ELEMENT_SET_NO = 999
REV_AT_EPOCH   = 29863
BSTAR          = .62143E-3
MEAN_MOTION_DOT = .22971E-3
MEAN_MOTION_DDOT = 0

CCSDS_OMM_VERS = 2.0
CREATION_DATE  = 
ORIGINATOR     = 

OBJECT_NAME    = SL-3 R/B
OBJECT_ID      = 1981-046B
CENTER_NAME    = EARTH
REF_FRAME      = TEME
TIME_SYSTEM    = UTC
MEAN_ELEMENT_THEORY = SGP/SGP4

EPOCH          = 2025-11-23T10:52:22.624032
MEAN_MOTION    = 15.39043866
ECCENTRICITY   = .0020228
INCLINATION    = 81.2343
RA_OF_ASC_NODE = 56.9974
ARG_OF_PERICENTER = 31.1734
MEAN_ANOMALY   = 329.0702

EPHEMERIS_TYPE = 0
CLASSIFICATION_TYPE = U
NORAD_CAT_ID   = 12465
ELEMENT_SET_NO = 999
REV_AT_EPOCH   = 42207
BSTAR          = .29465E-3
MEAN_MOTION_DOT = .11506E-3
MEAN_MOTION_DDOT = 0

CCSDS_OMM_VERS = 2.0
CREATION_DATE  = 
ORIGINATOR     = 

OBJECT_NAME    = SL-3 R/B
OBJECT_ID      = 1981-103B
CENTER_NAME    = EARTH
REF_FRAME      = TEME
TIME_SYSTEM    = UTC
MEAN_ELEMENT_THEORY = SGP/SGP4

EPOCH          = 2025-11-23T10:31:16.655808
MEAN_MOTION    = 15.19895492
ECCENTRICITY   = .0011504
INCLINATION    = 81.1590
RA_OF_ASC_NODE = 337.9551
ARG_OF_PERICENTER = 288.7577
MEAN_ANOMALY   = 71.2405

EPHEMERIS_TYPE = 0
CLASSIFICATION_TYPE = U
NORAD_CAT_ID   = 12904
ELEMENT_SET_NO = 999
REV_AT_EPOCH   = 95708
BSTAR          = .34676E-3
MEAN_MOTION_DOT = .7482E-4
MEAN_MOTION_DDOT = 0

CCSDS_OMM_VERS = 2.0
CREATION_DATE  = 
ORIGINATOR     = 

OBJECT_NAME    = SL-3 R/B
OBJECT_ID      = 1982-013B
CENTER_NAME    = EARTH
REF_FRAME      = TEME
TIME_SYSTEM    = UTC
MEAN_ELEMENT_THEORY = SGP/SGP4

EPOCH          = 2025-11-23T10:23:34.988640
MEAN_MOTION    = 15.20833640
ECCENTRICITY   = .0022886
INCLINATION    = 81.1743
RA_OF_ASC_NODE = 285.2038
ARG_OF_PERICENTER = 173.5688
MEAN_ANOMALY   = 186.5842

EPHEMERIS_TYPE = 0
CLASSIFICATION_TYPE = U
NORAD_CAT_ID   = 13068
ELEMENT_SET_NO = 999
REV_AT_EPOCH   = 38819
BSTAR          = .23301E-3
MEAN_MOTION_DOT = .5202E-4
MEAN_MOTION_DDOT = 0

CCSDS_OMM_VERS = 2.0
CREATION_DATE  = 
ORIGINATOR     = 

OBJECT_NAME    = SL-3 R/B
OBJECT_ID      = 1982-039B
CENTER_NAME    = EARTH
REF_FRAME      = TEME
TIME_SYSTEM    = UTC
MEAN_ELEMENT_THEORY = SGP/SGP4

EPOCH          = 2025-11-23T09:57:48.426048
MEAN_MOTION    = 15.09362006
ECCENTRICITY   = .0031265
INCLINATION    = 81.1755
RA_OF_ASC_NODE = 338.3226
ARG_OF_PERICENTER = 316.7854
MEAN_ANOMALY   = 43.0918

EPHEMERIS_TYPE = 0
CLASSIFICATION_TYPE = U
NORAD_CAT_ID   = 13154
ELEMENT_SET_NO = 999
REV_AT_EPOCH   = 36560
BSTAR          = .1689E-3
MEAN_MOTION_DOT = .2749E-4
MEAN_MOTION_DDOT = 0

